ORBCOMM FM37 [-]        
1 33064U 08031E   24051.88927031  .00002216  00000+0  34845-3 0  9995
2 33064  48.4401 109.5112 0005060 113.1627  56.9507 14.75933276842711
ORBCOMM FM40 [-]        
1 33065U 08031F   24051.88655895  .00002650  00000+0  39957-3 0  9993
2 33065  48.4424  99.6366 0006335 121.7902  48.4650 14.77155870842740
VESSELSAT 1 [-]         
1 37840U 11058C   24051.87954394  .00000444  00000+0  97740-4 0  9990
2 37840  19.9613 131.7767 0013575 282.6139  77.2747 14.11117479638093
ORBCOMM FM109 [+]       
1 40086U 14040A   24051.24404000  .00001449  00000+0  36116-3 0  9990
2 40086  47.0025 133.9209 0002940 258.4890 101.5664 14.56334584510626
ORBCOMM FM107 [+]       
1 40087U 14040B   24051.48431361  .00001837  00000+0  44808-3 0  9995
2 40087  47.0049 133.7454 0002203 239.1844 120.8824 14.56312320510738
ORBCOMM FM106 [-]       
1 40088U 14040C   24051.63342838  .00002171  00000+0  41853-3 0  9992
2 40088  47.0620 352.0531 0018319 346.7684  13.2723 14.66636118512570
ORBCOMM FM111 [-]       
1 40089U 14040D   24051.84510055  .00003815  00000+0  50780-3 0  9999
2 40089  47.0026 261.3817 0032547  51.5274 308.8533 14.81116565518603
ORBCOMM FM104 [-]       
1 40090U 14040E   24051.58141679  .00001348  00000+0  34890-3 0  9997
2 40090  47.0046 161.3277 0017081 164.4857 195.6553 14.54885037510303
